[{"OBJECT_NAME":"STARLINK-2585","OBJECT_ID":"2021-038AF","EPOCH":"2026-03-09T22:18:37.992960","MEAN_MOTION":15.30182931,"ECCENTRICITY":0.00013079,"INCLINATION":53.1582,"RA_OF_ASC_NODE":346.6731,"ARG_OF_PERICENTER":114.1663,"MEAN_ANOMALY":245.9475,"EPHEMERIS_TYPE":0,"CLASSIFICATION_TYPE":"U","NORAD_CAT_ID":48382,"ELEMENT_SET_NO":999,"REV_AT_EPOCH":26726,"BSTAR":0.00015256061,"MEAN_MOTION_DOT":4.159e-5,"MEAN_MOTION_DDOT":0},{"OBJECT_NAME":"CS1","OBJECT_ID":"2021-088B","EPOCH":"2026-03-09T18:02:30.253920","MEAN_MOTION":15.31848439,"ECCENTRICITY":0.00141292,"INCLINATION":97.3882,"RA_OF_ASC_NODE":132.1684,"ARG_OF_PERICENTER":78.0335,"MEAN_ANOMALY":282.249,"EPHEMERIS_TYPE":0,"CLASSIFICATION_TYPE":"U","NORAD_CAT_ID":49261,"ELEMENT_SET_NO":999,"REV_AT_EPOCH":24518,"BSTAR":0.00051175576,"MEAN_MOTION_DOT":0.00015722,"MEAN_MOTION_DDOT":0}]
